CCSDS_OMM_VERS = 2.0
CREATION_DATE  = 
ORIGINATOR     = 

OBJECT_NAME    = COSMOS 1892
OBJECT_ID      = 1987-088A
CENTER_NAME    = EARTH
REF_FRAME      = TEME
TIME_SYSTEM    = UTC
MEAN_ELEMENT_THEORY = SGP/SGP4

EPOCH          = 2025-11-06T19:30:45.961344
MEAN_MOTION    = 15.94895452
ECCENTRICITY   = .00058583
INCLINATION    = 82.4688
RA_OF_ASC_NODE = 84.2278
ARG_OF_PERICENTER = 294.9608
MEAN_ANOMALY   = 65.1058

EPHEMERIS_TYPE = 0
CLASSIFICATION_TYPE = U
NORAD_CAT_ID   = 18421
ELEMENT_SET_NO = 999
REV_AT_EPOCH   = 8556
BSTAR          = .79577875E-3
MEAN_MOTION_DOT = .305377E-2
MEAN_MOTION_DDOT = .34843312E-4

CCSDS_OMM_VERS = 2.0
CREATION_DATE  = 
ORIGINATOR     = 

OBJECT_NAME    = SL-14 R/B
OBJECT_ID      = 1988-001B
CENTER_NAME    = EARTH
REF_FRAME      = TEME
TIME_SYSTEM    = UTC
MEAN_ELEMENT_THEORY = SGP/SGP4

EPOCH          = 2025-11-06T11:16:02.818848
MEAN_MOTION    = 14.85363663
ECCENTRICITY   = .00165515
INCLINATION    = 82.5106
RA_OF_ASC_NODE = 311.2695
ARG_OF_PERICENTER = 287.5231
MEAN_ANOMALY   = 72.4176

EPHEMERIS_TYPE = 0
CLASSIFICATION_TYPE = U
NORAD_CAT_ID   = 18749
ELEMENT_SET_NO = 999
REV_AT_EPOCH   = 2373
BSTAR          = .81647363E-4
MEAN_MOTION_DOT = .727E-5
MEAN_MOTION_DDOT = 0

CCSDS_OMM_VERS = 2.0
CREATION_DATE  = 
ORIGINATOR     = 

OBJECT_NAME    = COSMOS 1933
OBJECT_ID      = 1988-020A
CENTER_NAME    = EARTH
REF_FRAME      = TEME
TIME_SYSTEM    = UTC
MEAN_ELEMENT_THEORY = SGP/SGP4

EPOCH          = 2025-11-06T17:39:10.867680
MEAN_MOTION    = 15.16681769
ECCENTRICITY   = .00028162
INCLINATION    = 82.5158
RA_OF_ASC_NODE = 12.4397
ARG_OF_PERICENTER = 263.8713
MEAN_ANOMALY   = 96.2199

EPHEMERIS_TYPE = 0
CLASSIFICATION_TYPE = U
NORAD_CAT_ID   = 18958
ELEMENT_SET_NO = 999
REV_AT_EPOCH   = 3158
BSTAR          = .31667189E-3
MEAN_MOTION_DOT = .6228E-4
MEAN_MOTION_DDOT = 0

CCSDS_OMM_VERS = 2.0
CREATION_DATE  = 
ORIGINATOR     = 

OBJECT_NAME    = SL-3 R/B
OBJECT_ID      = 1988-032B
CENTER_NAME    = EARTH
REF_FRAME      = TEME
TIME_SYSTEM    = UTC
MEAN_ELEMENT_THEORY = SGP/SGP4

EPOCH          = 2025-11-06T21:09:15.942528
MEAN_MOTION    = 15.18176406
ECCENTRICITY   = .00253184
INCLINATION    = 97.5046
RA_OF_ASC_NODE = 289.8708
ARG_OF_PERICENTER = 304.7507
MEAN_ANOMALY   = 55.1343

EPHEMERIS_TYPE = 0
CLASSIFICATION_TYPE = U
NORAD_CAT_ID   = 19046
ELEMENT_SET_NO = 999
REV_AT_EPOCH   = 3346
BSTAR          = .36140748E-3
MEAN_MOTION_DOT = .7379E-4
MEAN_MOTION_DDOT = 0

CCSDS_OMM_VERS = 2.0
CREATION_DATE  = 
ORIGINATOR     = 

OBJECT_NAME    = SL-16 R/B
OBJECT_ID      = 1988-039B
CENTER_NAME    = EARTH
REF_FRAME      = TEME
TIME_SYSTEM    = UTC
MEAN_ELEMENT_THEORY = SGP/SGP4

EPOCH          = 2025-11-06T10:59:34.092672
MEAN_MOTION    = 14.19586874
ECCENTRICITY   = .00214868
INCLINATION    = 71.0148
RA_OF_ASC_NODE = 329.1153
ARG_OF_PERICENTER = 175.4573
MEAN_ANOMALY   = 184.6752

EPHEMERIS_TYPE = 0
CLASSIFICATION_TYPE = U
NORAD_CAT_ID   = 19120
ELEMENT_SET_NO = 999
REV_AT_EPOCH   = 94089
BSTAR          = .9448421E-4
MEAN_MOTION_DOT = .152E-5
MEAN_MOTION_DDOT = 0

CCSDS_OMM_VERS = 2.0
CREATION_DATE  = 
ORIGINATOR     = 

OBJECT_NAME    = COSMOS 1953
OBJECT_ID      = 1988-050A
CENTER_NAME    = EARTH
REF_FRAME      = TEME
TIME_SYSTEM    = UTC
MEAN_ELEMENT_THEORY = SGP/SGP4

EPOCH          = 2025-11-06T23:34:12.576000
MEAN_MOTION    = 15.26343062
ECCENTRICITY   = .00114866
INCLINATION    = 82.5065
RA_OF_ASC_NODE = 281.4476
ARG_OF_PERICENTER = 185.5640
MEAN_ANOMALY   = 174.5472

EPHEMERIS_TYPE = 0
CLASSIFICATION_TYPE = U
NORAD_CAT_ID   = 19210
ELEMENT_SET_NO = 999
REV_AT_EPOCH   = 1905
BSTAR          = .24312289E-3
MEAN_MOTION_DOT = .6358E-4
MEAN_MOTION_DDOT = 0

CCSDS_OMM_VERS = 2.0
CREATION_DATE  = 
ORIGINATOR     = 

OBJECT_NAME    = SL-8 R/B
OBJECT_ID      = 1988-053B
CENTER_NAME    = EARTH
REF_FRAME      = TEME
TIME_SYSTEM    = UTC
MEAN_ELEMENT_THEORY = SGP/SGP4

EPOCH          = 2025-11-06T13:00:39.690720
MEAN_MOTION    = 14.38826032
ECCENTRICITY   = .00203235
INCLINATION    = 74.0479
RA_OF_ASC_NODE = 339.4360
ARG_OF_PERICENTER = 194.4645
MEAN_ANOMALY   = 317.8243

EPHEMERIS_TYPE = 0
CLASSIFICATION_TYPE = U
NORAD_CAT_ID   = 19257
ELEMENT_SET_NO = 999
REV_AT_EPOCH   = 95888
BSTAR          = .14183213E-3
MEAN_MOTION_DOT = .411E-5
MEAN_MOTION_DDOT = 0

CCSDS_OMM_VERS = 2.0
CREATION_DATE  = 
ORIGINATOR     = 

OBJECT_NAME    = COSMOS 1975
OBJECT_ID      = 1988-093A
CENTER_NAME    = EARTH
REF_FRAME      = TEME
TIME_SYSTEM    = UTC
MEAN_ELEMENT_THEORY = SGP/SGP4

EPOCH          = 2025-11-06T18:47:32.549568
MEAN_MOTION    = 15.25615776
ECCENTRICITY   = .00094445
INCLINATION    = 82.5221
RA_OF_ASC_NODE = 240.7972
ARG_OF_PERICENTER = 240.1994
MEAN_ANOMALY   = 119.8306

EPHEMERIS_TYPE = 0
CLASSIFICATION_TYPE = U
NORAD_CAT_ID   = 19573
ELEMENT_SET_NO = 999
REV_AT_EPOCH   = 65
BSTAR          = .52750946E-3
MEAN_MOTION_DOT = .1346E-3
MEAN_MOTION_DDOT = 0

CCSDS_OMM_VERS = 2.0
CREATION_DATE  = 
ORIGINATOR     = 

OBJECT_NAME    = SL-14 R/B
OBJECT_ID      = 1988-093B
CENTER_NAME    = EARTH
REF_FRAME      = TEME
TIME_SYSTEM    = UTC
MEAN_ELEMENT_THEORY = SGP/SGP4

EPOCH          = 2025-11-06T08:31:30.105120
MEAN_MOTION    = 14.85492857
ECCENTRICITY   = .00223202
INCLINATION    = 82.5304
RA_OF_ASC_NODE = 157.8118
ARG_OF_PERICENTER = 86.4341
MEAN_ANOMALY   = 86.0406

EPHEMERIS_TYPE = 0
CLASSIFICATION_TYPE = U
NORAD_CAT_ID   = 19574
ELEMENT_SET_NO = 999
REV_AT_EPOCH   = 98272
BSTAR          = .71244427E-4
MEAN_MOTION_DOT = .642E-5
MEAN_MOTION_DDOT = 0

CCSDS_OMM_VERS = 2.0
CREATION_DATE  = 
ORIGINATOR     = 

OBJECT_NAME    = SL-16 R/B
OBJECT_ID      = 1988-102B
CENTER_NAME    = EARTH
REF_FRAME      = TEME
TIME_SYSTEM    = UTC
MEAN_ELEMENT_THEORY = SGP/SGP4

EPOCH          = 2025-11-06T17:11:59.487936
MEAN_MOTION    = 14.16130966
ECCENTRICITY   = .00150977
INCLINATION    = 71.0011
RA_OF_ASC_NODE = 50.2365
ARG_OF_PERICENTER = 207.0706
MEAN_ANOMALY   = 152.9632

EPHEMERIS_TYPE = 0
CLASSIFICATION_TYPE = U
NORAD_CAT_ID   = 19650
ELEMENT_SET_NO = 999
REV_AT_EPOCH   = 90948
BSTAR          = -.32849438E-4
MEAN_MOTION_DOT = -.113E-5
MEAN_MOTION_DDOT = 0

CCSDS_OMM_VERS = 2.0
CREATION_DATE  = 
ORIGINATOR     = 

OBJECT_NAME    = INTERCOSMOS 24
OBJECT_ID      = 1989-080A
CENTER_NAME    = EARTH
REF_FRAME      = TEME
TIME_SYSTEM    = UTC
MEAN_ELEMENT_THEORY = SGP/SGP4

EPOCH          = 2025-11-06T14:14:01.231584
MEAN_MOTION    = 12.59358210
ECCENTRICITY   = .11878527
INCLINATION    = 82.6084
RA_OF_ASC_NODE = 184.4567
ARG_OF_PERICENTER = 218.3821
MEAN_ANOMALY   = 132.6715

EPHEMERIS_TYPE = 0
CLASSIFICATION_TYPE = U
NORAD_CAT_ID   = 20261
ELEMENT_SET_NO = 999
REV_AT_EPOCH   = 65130
BSTAR          = .27661425E-3
MEAN_MOTION_DOT = .937E-5
MEAN_MOTION_DDOT = 0

CCSDS_OMM_VERS = 2.0
CREATION_DATE  = 
ORIGINATOR     = 

OBJECT_NAME    = SL-14 R/B
OBJECT_ID      = 1989-080C
CENTER_NAME    = EARTH
REF_FRAME      = TEME
TIME_SYSTEM    = UTC
MEAN_ELEMENT_THEORY = SGP/SGP4

EPOCH          = 2025-11-06T19:39:49.286016
MEAN_MOTION    = 12.50374598
ECCENTRICITY   = .12314155
INCLINATION    = 82.5921
RA_OF_ASC_NODE = 252.0716
ARG_OF_PERICENTER = 105.6408
MEAN_ANOMALY   = 268.3756

EPHEMERIS_TYPE = 0
CLASSIFICATION_TYPE = U
NORAD_CAT_ID   = 20262
ELEMENT_SET_NO = 999
REV_AT_EPOCH   = 64479
BSTAR          = .10400707E-3
MEAN_MOTION_DOT = .377E-5
MEAN_MOTION_DDOT = 0

